{
  "type": "FeatureCollection",
  "features": [
    {
      "type": "Feature",
      "properties": {
        "norad_id": 30208,
        "name": "FENGYUN 1C DEB",
        "group": "fengyun-1c-debris",
        "lat": -41.912110341501524,
        "lon": 153.25087416101354,
        "alt_km": 811.2882929751104,
        "timestamp": "2025-12-05T20:43:02.329947+00:00",
        "meta_object_name": "FENGYUN 1C DEB",
        "meta_object_id": "1999-025VR",
        "meta_epoch": "2025-12-04T23:41:22.163712",
        "meta_mean_motion": 14.23499424,
        "meta_eccentricity": 0.0033059,
        "meta_inclination": 98.5615,
        "meta_ra_of_asc_node": 340.1699,
        "meta_arg_of_pericenter": 293.4038,
        "meta_mean_anomaly": 121.9297,
        "meta_ephemeris_type": 0,
        "meta_classification_type": "U",
        "meta_norad_cat_id": 30208,
        "meta_element_set_no": 999,
        "meta_rev_at_epoch": 97727,
        "meta_bstar": 0.00089563,
        "meta_mean_motion_dot": 2.005e-05,
        "meta_mean_motion_ddot": 0,
        "tle_line1": "1 30208U 99025VR  25338.98706208  .00002005  00000+0  89563-3 0  9999",
        "tle_line2": "2 30208  98.5615 340.1699 0033059 293.4038 121.9297 14.23499424977275"
      },
      "geometry": {
        "type": "Point",
        "coordinates": [
          153.25087416101354,
          -41.912110341501524
        ]
      }
    },
    {
      "type": "Feature",
      "properties": {
        "norad_id": 30209,
        "name": "FENGYUN 1C DEB",
        "group": "fengyun-1c-debris",
        "lat": 70.40125285275393,
        "lon": -177.6098617395951,
        "alt_km": 867.0822848708758,
        "timestamp": "2025-12-05T20:43:02.329957+00:00",
        "meta_object_name": "FENGYUN 1C DEB",
        "meta_object_id": "1999-025VS",
        "meta_epoch": "2025-12-05T06:40:17.798592",
        "meta_mean_motion": 14.12884455,
        "meta_eccentricity": 0.00385571,
        "meta_inclination": 98.7136,
        "meta_ra_of_asc_node": 336.3075,
        "meta_arg_of_pericenter": 260.509,
        "meta_mean_anomaly": 112.214,
        "meta_ephemeris_type": 0,
        "meta_classification_type": "U",
        "meta_norad_cat_id": 30209,
        "meta_element_set_no": 999,
        "meta_rev_at_epoch": 97101,
        "meta_bstar": 0.00076917805,
        "meta_mean_motion_dot": 1.398e-05,
        "meta_mean_motion_ddot": 0,
        "tle_line1": "1 30209U 99025VS  25339.27798378  .00001398  00000+0  76918-3 0  9996",
        "tle_line2": "2 30209  98.7136 336.3075 0038557 260.5090 112.2140 14.12884455971018"
      },
      "geometry": {
        "type": "Point",
        "coordinates": [
          -177.6098617395951,
          70.40125285275393
        ]
      }
    },
    {
      "type": "Feature",
      "properties": {
        "norad_id": 30210,
        "name": "FENGYUN 1C DEB",
        "group": "fengyun-1c-debris",
        "lat": -48.93422514680175,
        "lon": -161.22426649216627,
        "alt_km": 860.969245131575,
        "timestamp": "2025-12-05T20:43:02.329967+00:00",
        "meta_object_name": "FENGYUN 1C DEB",
        "meta_object_id": "1999-025VT",
        "meta_epoch": "2025-12-05T02:50:31.776576",
        "meta_mean_motion": 14.08243946,
        "meta_eccentricity": 0.00568675,
        "meta_inclination": 99.1913,
        "meta_ra_of_asc_node": 28.7267,
        "meta_arg_of_pericenter": 157.2625,
        "meta_mean_anomaly": 258.0105,
        "meta_ephemeris_type": 0,
        "meta_classification_type": "U",
        "meta_norad_cat_id": 30210,
        "meta_element_set_no": 999,
        "meta_rev_at_epoch": 96650,
        "meta_bstar": 0.0010230907,
        "meta_mean_motion_dot": 1.728e-05,
        "meta_mean_motion_ddot": 0,
        "tle_line1": "1 30210U 99025VT  25339.11842334  .00001728  00000+0  10231-2 0  9995",
        "tle_line2": "2 30210  99.1913  28.7267 0056867 157.2625 258.0105 14.08243946966500"
      },
      "geometry": {
        "type": "Point",
        "coordinates": [
          -161.22426649216627,
          -48.93422514680175
        ]
      }
    },
    {
      "type": "Feature",
      "properties": {
        "norad_id": 30212,
        "name": "FENGYUN 1C DEB",
        "group": "fengyun-1c-debris",
        "lat": 35.467063954276675,
        "lon": -161.77376431496575,
        "alt_km": 955.2511927202149,
        "timestamp": "2025-12-05T20:43:02.329978+00:00",
        "meta_object_name": "FENGYUN 1C DEB",
        "meta_object_id": "1999-025VV",
        "meta_epoch": "2025-12-05T05:04:26.833152",
        "meta_mean_motion": 13.97045291,
        "meta_eccentricity": 0.00967767,
        "meta_inclination": 99.4582,
        "meta_ra_of_asc_node": 204.3765,
        "meta_arg_of_pericenter": 257.8876,
        "meta_mean_anomaly": 101.143,
        "meta_ephemeris_type": 0,
        "meta_classification_type": "U",
        "meta_norad_cat_id": 30212,
        "meta_element_set_no": 999,
        "meta_rev_at_epoch": 96120,
        "meta_bstar": 0.00076472189,
        "meta_mean_motion_dot": 1.062e-05,
        "meta_mean_motion_ddot": 0,
        "tle_line1": "1 30212U 99025VV  25339.21142168  .00001062  00000+0  76472-3 0  9997",
        "tle_line2": "2 30212  99.4582 204.3765 0096776 257.8876 101.1430 13.97045291961201"
      },
      "geometry": {
        "type": "Point",
        "coordinates": [
          -161.77376431496575,
          35.467063954276675
        ]
      }
    },
    {
      "type": "Feature",
      "properties": {
        "norad_id": 30213,
        "name": "FENGYUN 1C DEB",
        "group": "fengyun-1c-debris",
        "lat": 70.30364652604881,
        "lon": -97.13500891366228,
        "alt_km": 893.9849821941598,
        "timestamp": "2025-12-05T20:43:02.329988+00:00",
        "meta_object_name": "FENGYUN 1C DEB",
        "meta_object_id": "1999-025VW",
        "meta_epoch": "2025-12-05T03:28:15.295872",
        "meta_mean_motion": 14.11509964,
        "meta_eccentricity": 0.00710407,
        "meta_inclination": 99.1238,
        "meta_ra_of_asc_node": 55.4608,
        "meta_arg_of_pericenter": 264.9026,
        "meta_mean_anomaly": 153.4191,
        "meta_ephemeris_type": 0,
        "meta_classification_type": "U",
        "meta_norad_cat_id": 30213,
        "meta_element_set_no": 999,
        "meta_rev_at_epoch": 96408,
        "meta_bstar": 0.0032664272,
        "meta_mean_motion_dot": 6.025e-05,
        "meta_mean_motion_ddot": 0,
        "tle_line1": "1 30213U 99025VW  25339.14462148  .00006025  00000+0  32664-2 0  9991",
        "tle_line2": "2 30213  99.1238  55.4608 0071040 264.9026 153.4191 14.11509964964083"
      },
      "geometry": {
        "type": "Point",
        "coordinates": [
          -97.13500891366228,
          70.30364652604881
        ]
      }
    },
    {
      "type": "Feature",
      "properties": {
        "norad_id": 30214,
        "name": "FENGYUN 1C DEB",
        "group": "fengyun-1c-debris",
        "lat": 13.978957807891693,
        "lon": -124.81994730722684,
        "alt_km": 792.4684629221292,
        "timestamp": "2025-12-05T20:43:02.329998+00:00",
        "meta_object_name": "FENGYUN 1C DEB",
        "meta_object_id": "1999-025VX",
        "meta_epoch": "2025-12-05T00:23:03.169824",
        "meta_mean_motion": 14.30820935,
        "meta_eccentricity": 0.00215313,
        "meta_inclination": 98.7256,
        "meta_ra_of_asc_node": 52.1389,
        "meta_arg_of_pericenter": 68.4312,
        "meta_mean_anomaly": 55.5712,
        "meta_ephemeris_type": 0,
        "meta_classification_type": "U",
        "meta_norad_cat_id": 30214,
        "meta_element_set_no": 999,
        "meta_rev_at_epoch": 97456,
        "meta_bstar": 0.0037501961,
        "meta_mean_motion_dot": 9.825e-05,
        "meta_mean_motion_ddot": 0,
        "tle_line1": "1 30214U 99025VX  25339.01600891  .00009825  00000+0  37502-2 0  9994",
        "tle_line2": "2 30214  98.7256  52.1389 0021531  68.4312  55.5712 14.30820935974564"
      },
      "geometry": {
        "type": "Point",
        "coordinates": [
          -124.81994730722684,
          13.978957807891693
        ]
      }
    },
    {
      "type": "Feature",
      "properties": {
        "norad_id": 30217,
        "name": "FENGYUN 1C DEB",
        "group": "fengyun-1c-debris",
        "lat": 71.93025937274572,
        "lon": 170.94079574083187,
        "alt_km": 703.9707286041157,
        "timestamp": "2025-12-05T20:43:02.330008+00:00",
        "meta_object_name": "FENGYUN 1C DEB",
        "meta_object_id": "1999-025WA",
        "meta_epoch": "2025-12-04T10:31:06.229920",
        "meta_mean_motion": 14.24819046,
        "meta_eccentricity": 0.0140505,
        "meta_inclination": 98.4306,
        "meta_ra_of_asc_node": 322.5352,
        "meta_arg_of_pericenter": 123.9626,
        "meta_mean_anomaly": 237.5,
        "meta_ephemeris_type": 0,
        "meta_classification_type": "U",
        "meta_norad_cat_id": 30217,
        "meta_element_set_no": 999,
        "meta_rev_at_epoch": 97955,
        "meta_bstar": 0.00039979,
        "meta_mean_motion_dot": 9.92e-06,
        "meta_mean_motion_ddot": 0,
        "tle_line1": "1 30217U 99025WA  25338.43826655  .00000992  00000+0  39979-3 0  9997",
        "tle_line2": "2 30217  98.4306 322.5352 0140505 123.9626 237.5000 14.24819046979552"
      },
      "geometry": {
        "type": "Point",
        "coordinates": [
          170.94079574083187,
          71.93025937274572
        ]
      }
    }
  ]
}